[{"OBJECT_NAME":"STARLINK-3541","OBJECT_ID":"2022-022C","EPOCH":"2026-03-09T03:43:39.090720","MEAN_MOTION":15.14066338,"ECCENTRICITY":0.00011202,"INCLINATION":53.2166,"RA_OF_ASC_NODE":19.7963,"ARG_OF_PERICENTER":55.171,"MEAN_ANOMALY":304.9389,"EPHEMERIS_TYPE":0,"CLASSIFICATION_TYPE":"U","NORAD_CAT_ID":51854,"ELEMENT_SET_NO":999,"REV_AT_EPOCH":22296,"BSTAR":0.0020482692,"MEAN_MOTION_DOT":0.00037583,"MEAN_MOTION_DDOT":0},{"OBJECT_NAME":"LEGION 2","OBJECT_ID":"2024-081B","EPOCH":"2026-03-09T21:44:46.632192","MEAN_MOTION":15.16566591,"ECCENTRICITY":0.00102207,"INCLINATION":97.5068,"RA_OF_ASC_NODE":147.8786,"ARG_OF_PERICENTER":344.1701,"MEAN_ANOMALY":15.9211,"EPHEMERIS_TYPE":0,"CLASSIFICATION_TYPE":"U","NORAD_CAT_ID":59626,"ELEMENT_SET_NO":999,"REV_AT_EPOCH":10249,"BSTAR":0.00029733867,"MEAN_MOTION_DOT":5.743e-5,"MEAN_MOTION_DDOT":0}]
